#dP2024  9 29  0  0  0.00000000      97 __u+U IGS20 FIT  IAC
## 2334      0.00000000   900.00000000 60582 0.0000000000000
+  119   C06C07C08C09C10C11C12C13C14C19C20C21C22C23C24C25C26
+        C27C28C29C30C32C33C34C35C36C37C38C39C40C41C42C43C44
+        C45E02E03E04E05E06E07E08E09E10E11E12E13E14E15E18E19
+        E21E24E25E26E27E29E30E31E33E34E36G01G02G03G04G05G06
+        G07G08G09G10G11G12G13G14G15G16G17G18G19G20G21G22G23
+        G24G25G26G27G28G29G30G31G32J02J03J04R01R02R03R04R05
+        R07R08R09R11R12R14R15R16R17R18R19R20R21R22R24R25R26
++        -9 -9 -8 -8 -8-13-13 -7-13-14-16-17-17-16-16-15-14
++       -17-17-14-17-15-14-17-17-15-14-11-11-11-16-16-16-18
++       -17-16-19-18-19-18-16-18-16-16-18-18-17-16-18-16-20
++       -20-19-20-19-19-19-18-18-19-18-19-20-17-20-18-19-15
++       -20-17-20-21-20-18-20-21-18-20-18-20-21-20-20-21-20
++       -18-20-16-21-16-18-20-21-17 -3 -3 -3-13-14-12-13-11
++       -13-14-14-15-15-13-14-14-15-15-12-13-13-13-14 -7 -8
%c M  cc GPS ccc cccc cccc cccc cccc ccccc ccccc ccccc ccccc
%c cc cc ccc ccc cccc cccc cccc cccc ccccc ccccc ccccc ccccc
%f  1.2500000  1.025000000  0.00000000000  0.000000000000000
%f  0.0000000  0.000000000  0.00000000000  0.000000000000000
%i    0    0    0    0      0      0      0      0         0
%i    0    0    0    0      0      0      0      0         0
/* INFORMATION & ANALYSIS CENTER (IAC)            FINAL DATA
/* S/V CLOCKS ARE ALIGNED TO GNSS TIME                      
/* G:C1WC2W R:C1PC2P E:C1XC5X C:C2IC6I J:C1CC2S             
/* PCV:IGS20_2317 OL/AL:FES2004  NONE     YN ORB:CoN CLK:CoN
*  2024 09 29 18 45  0.00000000
PC06   -163.674627  33865.175323 -24869.353300    272.403657
PC07 -15040.026227  27827.998216  27915.313521   -331.278435
PC08 -15694.003905  38924.172864  -5276.833260   -600.445055
PC09   5117.339259  36816.112543 -18767.906298   -403.932555
PC10  -6370.203974  28552.694962  30616.492383   -203.040113
PC11 -11000.729233  11149.067335  23169.693020    786.178250
PC12 -23510.356298  -4735.019713  14304.234002   -262.369146
PC13  -9653.661406  39308.379454 -12168.662498    431.409425
PC14 -20206.249003  16933.580851  -9067.113474   -254.349793
PC19  12329.487594 -18659.848276  16715.406468   -942.146637
PC20  24440.815220 -13394.158545   1690.129346   -943.229415
PC21 -22873.094216   -652.507659  15959.512291   -926.362034
PC22  -7634.609975 -13580.307570  23135.996483    137.378515
PC23   6063.195021  25173.548971  10423.280932   -845.798297
PC24 -15279.234027  11847.235974 -20146.253477    814.654710
PC25  -6059.532317  26308.766728  -7122.908235    519.502685
PC26 -15235.561500  -9004.082166 -21588.026492   -355.766768
PC27  24721.402103  11454.102524  -6047.718953    375.620981
PC28  17549.663853  19624.620750   9273.450775    291.258680
PC29   2361.441882 -16883.059798 -22094.002617    342.001410
PC30  20043.221732  -3530.206346 -19092.747877   -222.632967
PC32  22830.658130    561.256185 -16042.476059   -750.104924
PC33 -12276.483665  18748.779319 -16628.588752   -963.314679
PC34 -18895.740216   4968.836155  19920.165833    531.751787
PC35 -17828.779987 -19138.349651  -9779.991001    248.264636
PC36   6343.988880 -26339.793600   6676.352826    193.106978
PC37  14994.602291   9516.713052  21541.172776   -895.335026
PC38 -19062.797805  37552.901733   3516.135172    182.294192
PC39  -7091.643869  27243.502097 -31256.204611    -10.001351
PC40 -21118.580951  21107.585121  29676.513055    -93.933735
PC41   6730.669377  14064.180771 -23100.276034   -903.962765
PC42 -24988.944351  12386.316908    178.459843   -485.181311
PC43  -3463.084293  16505.707167  22223.468249     87.352399
PC44 -25168.778491 -10575.707926   5827.386756    607.879910
PC45  -5596.302158 -25412.905437 -10045.607738   -139.659364
PE02 -17170.683881  24009.745399   2321.907320    163.116651
PE03 -14102.712781  13596.118552 -22198.857503   -143.644351
PE04  -8798.472509 -17112.834428  22490.339557    -45.048849
PE05 -28166.292770   2155.299144  -8842.912159   4788.539767
PE06 -18864.839275 -15034.886594  17137.210627    -30.955455
PE07  25668.955394  10795.465335 -10055.925823   -144.697688
PE08   7900.513425  17058.445700 -22875.033612   -343.491211
PE09 -25616.906696 -10781.578749  10156.701406   -607.812380
PE10 -13988.004270 -25461.901647   5628.953589   -659.919157
PE11 -17686.704148 -18305.037767  15102.614444   1468.833256
PE12  -8637.272951 -28099.754538  -3490.302840  -1230.965943
PE13  17533.142761  18803.258471 -14666.613514    -25.264163
PE14  15776.486577 -16182.701099 -21302.027000    259.367672
PE15   8218.419833  28130.718452   4181.478216   -130.105395
PE18   3121.372986  17370.199326  19574.124480    602.850182
PE19  16074.617303 -12535.419659  21462.542140    699.250039
PE21  22636.965605 -11624.716937  15122.779613   -619.630331
PE24 -14963.699503  -8237.837287 -24185.818824  -1014.978522
PE25 -22611.499277  11238.448137 -15441.558927      9.601104
PE26  16411.914938  -1950.383866 -24549.991458   -255.070291
PE27  15010.102785   8067.177006  24207.971706   -465.123786
PE29  28035.125264  -2408.171200   9160.592147    -33.898568
PE30  -1371.590178  22750.448812  18887.800058   -767.814411
PE31   1364.967485 -22734.810026 -18893.406843    -37.552039
PE33   6082.533700 -20437.920255 -20517.274062     15.592573
PE34  -5724.321968  20818.387602  20256.188153   -137.174164
PE36 -16437.266686   1309.727786  24586.450342   -290.168742
PG01   4305.810716 -22512.054936 -13506.443135    184.671640
PG02 -18554.457637  -6629.140697  18439.126856   -347.690993
PG03 -18733.518393   6755.064762  17351.722320    554.359666
PG04 -26341.416184   -349.292854  -3945.562719    452.756972
PG05  11779.022776   9454.403681 -22026.931823   -188.200483
PG06   3660.262638  24237.961233  10157.616204     -3.287845
PG07 -11268.273136  10948.278454 -20826.497641    -32.457339
PG08 -24701.448858  -6791.790796  -7933.599897    368.784910
PG09 -21667.064693   8060.645141 -13223.441004    377.422508
PG10   8761.365664 -23231.000305   9157.608143   -141.540381
PG11  12872.271571  22834.835461  -4475.867685   -739.627663
PG12  18359.043108  -1973.031549  18793.593512   -541.628033
PG13  18644.739950  13695.997712 -13489.097023    679.037071
PG14 -11994.820450  22983.455543   5235.505349    506.584032
PG15  25208.997995   4101.248708  -8109.266105    209.976291
PG16  -7831.446796 -14014.721582 -21426.773789   -167.934749
PG17  -7033.488187  14172.585761  21774.550921    611.678407
PG18  10407.800194 -11976.498343 -21238.050799   -655.911954
PG19   3427.029306  15543.893565  21178.926485    544.335456
PG20   4938.162470  19252.519062 -17618.281829    370.151105
PG21 -19241.960400 -12796.493801  14389.562870    100.783550
PG22  -6695.573926  22453.483371  13199.439026    -66.558154
PG23  16494.535861 -20241.250114  -4122.486832    330.949109
PG24  19102.122019   8944.686786  15931.736843   -486.024907
PG25  19019.020842 -14475.091681  10958.657926    499.615910
PG26    362.890082 -22219.502489 -14424.452655     67.627559
PG27 -16871.481028 -12847.728378 -16543.233637    -34.178349
PG28  -2740.515623 -23572.247966  11913.173470   -428.779965
PG29  23593.155607  -4310.240057 -11592.847567   -574.659281
PG30  -3781.541415  20273.356764 -16437.751112   -311.977161
PG31 -10732.273202 -24065.286603      7.150770   -224.068609
PG32   4358.577337 -14878.719942  21764.306855   -592.209913
PJ02 -29344.748633  30395.044462   5021.556740     -1.143785
PJ03 -26104.186221  22981.240680  28963.628238     -3.768589
PJ04 -33669.174113  22652.387739  -6506.168895     22.124560
PR01 -22239.918965  10512.241889  -6741.574324     99.391649
PR02  -9657.222941  12382.305012 -20087.887271    -24.905546
PR03   9181.975173   8205.560627 -22288.456949    108.488456
PR04  22310.853987   -300.327831 -12319.939507    257.000032
PR05  23640.379587  -8540.519035   4257.380249    138.393946
PR07  -9823.029337  -7978.334435  22190.665690     91.906127
PR08 -22458.950793    541.033130  12174.346339     -6.417937
PR09   5696.946666 -24893.302739    943.492667    211.886163
PR11  -9710.284989  -5994.772277 -22802.347345     10.552426
PR12 -11940.486308  14718.403808 -17052.074040     45.422756
PR14   2954.022036  20209.446169  15281.690647     26.988924
PR15  10349.423098   4188.977505  22955.504105     75.366745
PR16  11821.551939 -14617.974081  17271.301361     29.547906
PR17  15666.198623  19196.638723   6185.288833    126.354533
PR18  19467.574665  12890.966534 -10207.563208    164.476015
PR19  14624.147261   1954.660182 -20808.238289   -293.114360
PR20  -1343.252724 -14918.705211 -20643.097560   -119.788549
PR21 -15060.740493 -19355.117214  -6941.592826   -138.615510
PR22 -19256.786934 -12394.250746  11268.593742     34.548228
PR24   2168.027569  15423.988190  20230.617461    -74.016014
PR25 -15054.857572 -19750.421534  -5754.631084    -96.469345
PR26 -21648.805226   -190.957803  13489.529247     49.710097
EOF
